[{"OBJECT_NAME":"STARLINK-4386","OBJECT_ID":"2022-105B","EPOCH":"2026-03-09T15:28:07.769568","MEAN_MOTION":15.05650293,"ECCENTRICITY":0.0002183,"INCLINATION":97.6023,"RA_OF_ASC_NODE":311.223,"ARG_OF_PERICENTER":74.0252,"MEAN_ANOMALY":286.1215,"EPHEMERIS_TYPE":0,"CLASSIFICATION_TYPE":"U","NORAD_CAT_ID":53649,"ELEMENT_SET_NO":999,"REV_AT_EPOCH":19329,"BSTAR":-1.5178e-5,"MEAN_MOTION_DOT":-2.8e-6,"MEAN_MOTION_DDOT":0},{"OBJECT_NAME":"DELTA 1 DEB","OBJECT_ID":"1977-065DC","EPOCH":"2026-03-08T18:53:52.858176","MEAN_MOTION":13.67610044,"ECCENTRICITY":0.06541303,"INCLINATION":29.1038,"RA_OF_ASC_NODE":273.1071,"ARG_OF_PERICENTER":41.1554,"MEAN_ANOMALY":323.6515,"EPHEMERIS_TYPE":0,"CLASSIFICATION_TYPE":"U","NORAD_CAT_ID":10306,"ELEMENT_SET_NO":999,"REV_AT_EPOCH":37728,"BSTAR":0.00097809201,"MEAN_MOTION_DOT":3.989e-5,"MEAN_MOTION_DDOT":0}]
